[{"OBJECT_NAME":"SL-14 R/B","OBJECT_ID":"1986-006B","EPOCH":"2026-04-09T19:32:38.423904","MEAN_MOTION":14.86873227,"ECCENTRICITY":0.0076792,"INCLINATION":82.5273,"RA_OF_ASC_NODE":230.4403,"ARG_OF_PERICENTER":168.4547,"MEAN_ANOMALY":191.8455,"EPHEMERIS_TYPE":0,"CLASSIFICATION_TYPE":"U","NORAD_CAT_ID":16496,"ELEMENT_SET_NO":999,"REV_AT_EPOCH":15383,"BSTAR":9.4979e-5,"MEAN_MOTION_DOT":9.22e-6,"MEAN_MOTION_DDOT":0},{"OBJECT_NAME":"COSMOS 1743","OBJECT_ID":"1986-034A","EPOCH":"2026-04-09T19:38:59.270784","MEAN_MOTION":15.61465173,"ECCENTRICITY":0.0006447,"INCLINATION":82.5309,"RA_OF_ASC_NODE":41.0944,"ARG_OF_PERICENTER":141.5186,"MEAN_ANOMALY":218.6532,"EPHEMERIS_TYPE":0,"CLASSIFICATION_TYPE":"U","NORAD_CAT_ID":16719,"ELEMENT_SET_NO":999,"REV_AT_EPOCH":18510,"BSTAR":0.00046811,"MEAN_MOTION_DOT":0.00040172,"MEAN_MOTION_DDOT":0},{"OBJECT_NAME":"SL-14 R/B","OBJECT_ID":"1986-046B","EPOCH":"2026-04-09T14:07:07.374720","MEAN_MOTION":14.85624048,"ECCENTRICITY":0.0024389,"INCLINATION":82.4823,"RA_OF_ASC_NODE":50.9824,"ARG_OF_PERICENTER":123.7316,"MEAN_ANOMALY":236.6229,"EPHEMERIS_TYPE":0,"CLASSIFICATION_TYPE":"U","NORAD_CAT_ID":16792,"ELEMENT_SET_NO":999,"REV_AT_EPOCH":13099,"BSTAR":5.9903e-5,"MEAN_MOTION_DOT":5.46e-6,"MEAN_MOTION_DDOT":0},{"OBJECT_NAME":"SL-14 R/B","OBJECT_ID":"1986-055B","EPOCH":"2026-04-09T12:37:15.823776","MEAN_MOTION":14.85672867,"ECCENTRICITY":0.0017691,"INCLINATION":82.5168,"RA_OF_ASC_NODE":97.6804,"ARG_OF_PERICENTER":226.8816,"MEAN_ANOMALY":250.5036,"EPHEMERIS_TYPE":0,"CLASSIFICATION_TYPE":"U","NORAD_CAT_ID":16882,"ELEMENT_SET_NO":999,"REV_AT_EPOCH":12394,"BSTAR":5.1314e-5,"MEAN_MOTION_DOT":4.7e-6,"MEAN_MOTION_DDOT":0},{"OBJECT_NAME":"AJISAI (EGS)","OBJECT_ID":"1986-061A","EPOCH":"2026-04-09T21:02:40.837920","MEAN_MOTION":12.44515674,"ECCENTRICITY":0.0011381,"INCLINATION":50.0121,"RA_OF_ASC_NODE":357.4489,"ARG_OF_PERICENTER":7.26,"MEAN_ANOMALY":72.2771,"EPHEMERIS_TYPE":0,"CLASSIFICATION_TYPE":"U","NORAD_CAT_ID":16908,"ELEMENT_SET_NO":999,"REV_AT_EPOCH":47188,"BSTAR":1.4249e-6,"MEAN_MOTION_DOT":-9.7e-7,"MEAN_MOTION_DDOT":0},{"OBJECT_NAME":"SL-14 R/B","OBJECT_ID":"1987-024B","EPOCH":"2026-04-09T14:39:01.145952","MEAN_MOTION":14.86165081,"ECCENTRICITY":0.0018866,"INCLINATION":82.5272,"RA_OF_ASC_NODE":63.6947,"ARG_OF_PERICENTER":153.8848,"MEAN_ANOMALY":206.3324,"EPHEMERIS_TYPE":0,"CLASSIFICATION_TYPE":"U","NORAD_CAT_ID":17567,"ELEMENT_SET_NO":999,"REV_AT_EPOCH":9272,"BSTAR":5.6975e-5,"MEAN_MOTION_DOT":5.26e-6,"MEAN_MOTION_DDOT":0},{"OBJECT_NAME":"COSMOS 1833","OBJECT_ID":"1987-027A","EPOCH":"2026-04-09T20:47:25.928448","MEAN_MOTION":14.13041329,"ECCENTRICITY":0.002274,"INCLINATION":70.9163,"RA_OF_ASC_NODE":260.4856,"ARG_OF_PERICENTER":167.4555,"MEAN_ANOMALY":192.7136,"EPHEMERIS_TYPE":0,"CLASSIFICATION_TYPE":"U","NORAD_CAT_ID":17589,"ELEMENT_SET_NO":999,"REV_AT_EPOCH":1472,"BSTAR":-0.00013349,"MEAN_MOTION_DOT":-2.98e-6,"MEAN_MOTION_DDOT":0},{"OBJECT_NAME":"SL-16 R/B","OBJECT_ID":"1987-027B","EPOCH":"2026-04-09T16:17:31.976448","MEAN_MOTION":14.17170444,"ECCENTRICITY":0.0002907,"INCLINATION":71.0036,"RA_OF_ASC_NODE":211.1899,"ARG_OF_PERICENTER":62.0795,"MEAN_ANOMALY":298.0623,"EPHEMERIS_TYPE":0,"CLASSIFICATION_TYPE":"U","NORAD_CAT_ID":17590,"ELEMENT_SET_NO":999,"REV_AT_EPOCH":1973,"BSTAR":9.6217e-6,"MEAN_MOTION_DOT":-2.9e-7,"MEAN_MOTION_DDOT":0},{"OBJECT_NAME":"SL-14 R/B","OBJECT_ID":"1987-038B","EPOCH":"2026-04-09T19:45:36.395424","MEAN_MOTION":14.85400887,"ECCENTRICITY":0.0020586,"INCLINATION":82.4983,"RA_OF_ASC_NODE":267.4684,"ARG_OF_PERICENTER":63.8501,"MEAN_ANOMALY":296.4829,"EPHEMERIS_TYPE":0,"CLASSIFICATION_TYPE":"U","NORAD_CAT_ID":17912,"ELEMENT_SET_NO":999,"REV_AT_EPOCH":8385,"BSTAR":5.2585e-5,"MEAN_MOTION_DOT":4.79e-6,"MEAN_MOTION_DDOT":0},{"OBJECT_NAME":"COSMOS 1844","OBJECT_ID":"1987-041A","EPOCH":"2026-04-09T19:08:16.839168","MEAN_MOTION":14.14564784,"ECCENTRICITY":0.0031955,"INCLINATION":70.9011,"RA_OF_ASC_NODE":328.5642,"ARG_OF_PERICENTER":332.0627,"MEAN_ANOMALY":27.8778,"EPHEMERIS_TYPE":0,"CLASSIFICATION_TYPE":"U","NORAD_CAT_ID":17973,"ELEMENT_SET_NO":999,"REV_AT_EPOCH":798,"BSTAR":6.9994e-5,"MEAN_MOTION_DOT":8.7e-7,"MEAN_MOTION_DDOT":0},{"OBJECT_NAME":"SL-14 R/B","OBJECT_ID":"1987-055B","EPOCH":"2026-04-09T01:17:31.856352","MEAN_MOTION":14.85659643,"ECCENTRICITY":0.00191059,"INCLINATION":82.4987,"RA_OF_ASC_NODE":320.4147,"ARG_OF_PERICENTER":273.6379,"MEAN_ANOMALY":86.2653,"EPHEMERIS_TYPE":0,"CLASSIFICATION_TYPE":"U","NORAD_CAT_ID":18153,"ELEMENT_SET_NO":999,"REV_AT_EPOCH":7444,"BSTAR":3.3976231e-5,"MEAN_MOTION_DOT":3.19e-6,"MEAN_MOTION_DDOT":0},{"OBJECT_NAME":"COSMOS 1867","OBJECT_ID":"1987-060A","EPOCH":"2026-04-09T12:42:38.057760","MEAN_MOTION":14.31508186,"ECCENTRICITY":0.0015049,"INCLINATION":65.0107,"RA_OF_ASC_NODE":220.3345,"ARG_OF_PERICENTER":280.3676,"MEAN_ANOMALY":79.5712,"EPHEMERIS_TYPE":0,"CLASSIFICATION_TYPE":"U","NORAD_CAT_ID":18187,"ELEMENT_SET_NO":999,"REV_AT_EPOCH":2435,"BSTAR":3.0812e-5,"MEAN_MOTION_DOT":-1.8e-7,"MEAN_MOTION_DDOT":0},{"OBJECT_NAME":"SL-14 R/B","OBJECT_ID":"1988-001B","EPOCH":"2026-04-09T10:55:50.770272","MEAN_MOTION":14.85562121,"ECCENTRICITY":0.00192254,"INCLINATION":82.5151,"RA_OF_ASC_NODE":166.4329,"ARG_OF_PERICENTER":133.5288,"MEAN_ANOMALY":226.753,"EPHEMERIS_TYPE":0,"CLASSIFICATION_TYPE":"U","NORAD_CAT_ID":18749,"ELEMENT_SET_NO":999,"REV_AT_EPOCH":4659,"BSTAR":4.4651106e-5,"MEAN_MOTION_DOT":4.12e-6,"MEAN_MOTION_DDOT":0},{"OBJECT_NAME":"COSMOS 1933","OBJECT_ID":"1988-020A","EPOCH":"2026-04-09T18:27:09.267264","MEAN_MOTION":15.18300823,"ECCENTRICITY":0.0005473,"INCLINATION":82.514,"RA_OF_ASC_NODE":220.156,"ARG_OF_PERICENTER":93.195,"MEAN_ANOMALY":266.991,"EPHEMERIS_TYPE":0,"CLASSIFICATION_TYPE":"U","NORAD_CAT_ID":18958,"ELEMENT_SET_NO":999,"REV_AT_EPOCH":5494,"BSTAR":0.00018606,"MEAN_MOTION_DOT":3.846e-5,"MEAN_MOTION_DDOT":0},{"OBJECT_NAME":"SL-3 R/B","OBJECT_ID":"1988-032B","EPOCH":"2026-04-09T19:16:46.057440","MEAN_MOTION":15.20271407,"ECCENTRICITY":0.0027401,"INCLINATION":97.5229,"RA_OF_ASC_NODE":82.9608,"ARG_OF_PERICENTER":123.3825,"MEAN_ANOMALY":237.0037,"EPHEMERIS_TYPE":0,"CLASSIFICATION_TYPE":"U","NORAD_CAT_ID":19046,"ELEMENT_SET_NO":999,"REV_AT_EPOCH":5683,"BSTAR":0.00020659,"MEAN_MOTION_DOT":4.458e-5,"MEAN_MOTION_DDOT":0},{"OBJECT_NAME":"SL-16 R/B","OBJECT_ID":"1988-039B","EPOCH":"2026-04-09T18:32:18.753792","MEAN_MOTION":14.1962131,"ECCENTRICITY":0.0023943,"INCLINATION":71.0175,"RA_OF_ASC_NODE":2.8243,"ARG_OF_PERICENTER":290.1409,"MEAN_ANOMALY":69.7141,"EPHEMERIS_TYPE":0,"CLASSIFICATION_TYPE":"U","NORAD_CAT_ID":19120,"ELEMENT_SET_NO":999,"REV_AT_EPOCH":96279,"BSTAR":7.9771e-5,"MEAN_MOTION_DOT":1.21e-6,"MEAN_MOTION_DDOT":0},{"OBJECT_NAME":"COSMOS 1953","OBJECT_ID":"1988-050A","EPOCH":"2026-04-09T12:28:40.716480","MEAN_MOTION":15.29028892,"ECCENTRICITY":0.0011344,"INCLINATION":82.5061,"RA_OF_ASC_NODE":127.2251,"ARG_OF_PERICENTER":25.47,"MEAN_ANOMALY":334.7096,"EPHEMERIS_TYPE":0,"CLASSIFICATION_TYPE":"U","NORAD_CAT_ID":19210,"ELEMENT_SET_NO":999,"REV_AT_EPOCH":4249,"BSTAR":0.00022085,"MEAN_MOTION_DOT":6.267e-5,"MEAN_MOTION_DDOT":0}]
