SL-14 R/B               
1 16496U 86006B   26099.81433361  .00000922  00000+0  94979-4 0  9995
2 16496  82.5273 230.4403 0076792 168.4547 191.8455 14.86873227153838
COSMOS 1743             
1 16719U 86034A   26099.81874156  .00040172  00000+0  46811-3 0  9997
2 16719  82.5309  41.0944 0006447 141.5186 218.6532 15.61465173185103
SL-14 R/B               
1 16792U 86046B   26099.58827980  .00000546  00000+0  59903-4 0  9996
2 16792  82.4823  50.9824 0024389 123.7316 236.6229 14.85624048130995
SL-14 R/B               
1 16882U 86055B   26099.52587759  .00000470  00000+0  51314-4 0  9991
2 16882  82.5168  97.6804 0017691 226.8816 250.5036 14.85672867123942
AJISAI (EGS)            
1 16908U 86061A   26099.87686155 -.00000097  00000+0  14249-5 0  9998
2 16908  50.0121 357.4489 0011381   7.2600  72.2771 12.44515674471887
SL-14 R/B               
1 17567U 87024B   26099.61042993  .00000526  00000+0  56975-4 0  9995
2 17567  82.5272  63.6947 0018866 153.8848 206.3324 14.86165081 92725
COSMOS 1833             
1 17589U 87027A   26099.86627232 -.00000298  00000+0 -13349-3 0  9999
2 17589  70.9163 260.4856 0022740 167.4555 192.7136 14.13041329 14728
SL-16 R/B               
1 17590U 87027B   26099.67884232 -.00000029  00000+0  96217-5 0  9993
2 17590  71.0036 211.1899 0002907  62.0795 298.0623 14.17170444 19732
SL-14 R/B               
1 17912U 87038B   26099.82333791  .00000479  00000+0  52585-4 0  9996
2 17912  82.4983 267.4684 0020586  63.8501 296.4829 14.85400887 83856
COSMOS 1844             
1 17973U 87041A   26099.79741712  .00000087  00000+0  69994-4 0  9996
2 17973  70.9011 328.5642 0031955 332.0627  27.8778 14.14564784  7980
SL-14 R/B               
1 18153U 87055B   26099.05384093  .00000319  00000+0  33976-4 0  9995
2 18153  82.4987 320.4147 0019105 273.6379  86.2653 14.85659643 74442
COSMOS 1867             
1 18187U 87060A   26099.52960715 -.00000018  00000+0  30812-4 0  9994
2 18187  65.0107 220.3345 0015049 280.3676  79.5712 14.31508186 24358
SL-14 R/B               
1 18749U 88001B   26099.45544873  .00000412  00000+0  44651-4 0  9992
2 18749  82.5151 166.4329 0019225 133.5288 226.7530 14.85562121 46597
COSMOS 1933             
1 18958U 88020A   26099.76885726  .00003846  00000+0  18606-3 0  9998
2 18958  82.5140 220.1560 0005473  93.1950 266.9910 15.18300823 54941
SL-3 R/B                
1 19046U 88032B   26099.80331085  .00004458  00000+0  20659-3 0  9990
2 19046  97.5229  82.9608 0027401 123.3825 237.0037 15.20271407 56830
SL-16 R/B               
1 19120U 88039B   26099.77243928  .00000121  00000+0  79771-4 0  9997
2 19120  71.0175   2.8243 0023943 290.1409  69.7141 14.19621310962790
COSMOS 1953             
1 19210U 88050A   26099.51991570  .00006267  00000+0  22085-3 0  9997
2 19210  82.5061 127.2251 0011344  25.4700 334.7096 15.29028892 42495
